[
    {
      "OBJECT_NAME": "ONEWEB-0584",
      "OBJECT_ID": "2022-166K",
      "EPOCH": "2026-03-26T22:56:55.658400",
      "MEAN_MOTION": 13.2182777,
      "ECCENTRICITY": 0.00013717,
      "INCLINATION": 87.9167,
      "RA_OF_ASC_NODE": 260.3742,
      "ARG_OF_PERICENTER": 100.5405,
      "MEAN_ANOMALY": 259.5883,
      "EPHEMERIS_TYPE": 0,
      "CLASSIFICATION_TYPE": "U",
      "NORAD_CAT_ID": 54651,
      "ELEMENT_SET_NO": 999,
      "REV_AT_EPOCH": 16065,
      "BSTAR": 0.000055313069,
      "MEAN_MOTION_DOT": 3.6e-7,
      "MEAN_MOTION_DDOT": 0
    },
    {
      "OBJECT_NAME": "ONEWEB-0585",
      "OBJECT_ID": "2022-166L",
      "EPOCH": "2026-03-26T21:43:29.421696",
      "MEAN_MOTION": 13.21825399,
      "ECCENTRICITY": 0.00017887,
      "INCLINATION": 87.917,
      "RA_OF_ASC_NODE": 260.3693,
      "ARG_OF_PERICENTER": 91.6292,
      "MEAN_ANOMALY": 268.5047,
      "EPHEMERIS_TYPE": 0,
      "CLASSIFICATION_TYPE": "U",
      "NORAD_CAT_ID": 54652,
      "ELEMENT_SET_NO": 999,
      "REV_AT_EPOCH": 16065,
      "BSTAR": -0.000055268506,
      "MEAN_MOTION_DOT": -1e-7,
      "MEAN_MOTION_DDOT": 0
    },
    {
      "OBJECT_NAME": "ONEWEB-0586",
      "OBJECT_ID": "2022-166M",
      "EPOCH": "2026-03-26T22:02:27.383136",
      "MEAN_MOTION": 13.2182611,
      "ECCENTRICITY": 0.00016665,
      "INCLINATION": 87.9169,
      "RA_OF_ASC_NODE": 260.3925,
      "ARG_OF_PERICENTER": 102.0388,
      "MEAN_ANOMALY": 258.0933,
      "EPHEMERIS_TYPE": 0,
      "CLASSIFICATION_TYPE": "U",
      "NORAD_CAT_ID": 54653,
      "ELEMENT_SET_NO": 999,
      "REV_AT_EPOCH": 16065,
      "BSTAR": 0.00011831501,
      "MEAN_MOTION_DOT": 6.2e-7,
      "MEAN_MOTION_DDOT": 0
    },
    {
      "OBJECT_NAME": "ONEWEB-0587",
      "OBJECT_ID": "2022-166N",
      "EPOCH": "2026-03-26T22:16:39.628416",
      "MEAN_MOTION": 13.21825469,
      "ECCENTRICITY": 0.00020042,
      "INCLINATION": 87.9179,
      "RA_OF_ASC_NODE": 260.3559,
      "ARG_OF_PERICENTER": 88.978,
      "MEAN_ANOMALY": 271.1584,
      "EPHEMERIS_TYPE": 0,
      "CLASSIFICATION_TYPE": "U",
      "NORAD_CAT_ID": 54654,
      "ELEMENT_SET_NO": 999,
      "REV_AT_EPOCH": 16081,
      "BSTAR": -0.000017148599,
      "MEAN_MOTION_DOT": 6e-8,
      "MEAN_MOTION_DDOT": 0
    },
    {
      "OBJECT_NAME": "ONEWEB-0589",
      "OBJECT_ID": "2022-166P",
      "EPOCH": "2026-03-26T21:57:42.255360",
      "MEAN_MOTION": 13.21825155,
      "ECCENTRICITY": 0.00010337,
      "INCLINATION": 87.9167,
      "RA_OF_ASC_NODE": 260.3816,
      "ARG_OF_PERICENTER": 118.8348,
      "MEAN_ANOMALY": 241.2889,
      "EPHEMERIS_TYPE": 0,
      "CLASSIFICATION_TYPE": "U",
      "NORAD_CAT_ID": 54655,
      "ELEMENT_SET_NO": 999,
      "REV_AT_EPOCH": 16067,
      "BSTAR": -0.000022591049,
      "MEAN_MOTION_DOT": 4e-8,
      "MEAN_MOTION_DDOT": 0
    },
    {
      "OBJECT_NAME": "ONEWEB-0590",
      "OBJECT_ID": "2022-166Q",
      "EPOCH": "2026-03-26T22:33:03.021120",
      "MEAN_MOTION": 13.21826151,
      "ECCENTRICITY": 0.00014728,
      "INCLINATION": 87.9176,
      "RA_OF_ASC_NODE": 260.3584,
      "ARG_OF_PERICENTER": 81.0849,
      "MEAN_ANOMALY": 279.0451,
      "EPHEMERIS_TYPE": 0,
      "CLASSIFICATION_TYPE": "U",
      "NORAD_CAT_ID": 54656,
      "ELEMENT_SET_NO": 999,
      "REV_AT_EPOCH": 16066,
      "BSTAR": -0.000088655239,
      "MEAN_MOTION_DOT": -2.4e-7,
      "MEAN_MOTION_DDOT": 0
    },
    {
      "OBJECT_NAME": "ONEWEB-0591",
      "OBJECT_ID": "2022-166R",
      "EPOCH": "2026-03-26T22:49:50.820960",
      "MEAN_MOTION": 13.21825554,
      "ECCENTRICITY": 0.00016423,
      "INCLINATION": 87.9171,
      "RA_OF_ASC_NODE": 260.3764,
      "ARG_OF_PERICENTER": 93.8359,
      "MEAN_ANOMALY": 266.2963,
      "EPHEMERIS_TYPE": 0,
      "CLASSIFICATION_TYPE": "U",
      "NORAD_CAT_ID": 54657,
      "ELEMENT_SET_NO": 999,
      "REV_AT_EPOCH": 16069,
      "BSTAR": -0.00014038463,
      "MEAN_MOTION_DOT": -4.5e-7,
      "MEAN_MOTION_DDOT": 0
    },
    {
      "OBJECT_NAME": "ONEWEB-0592",
      "OBJECT_ID": "2022-166S",
      "EPOCH": "2026-03-26T22:54:34.876512",
      "MEAN_MOTION": 13.21825819,
      "ECCENTRICITY": 0.0001676,
      "INCLINATION": 87.9177,
      "RA_OF_ASC_NODE": 260.3476,
      "ARG_OF_PERICENTER": 95.132,
      "MEAN_ANOMALY": 265.0005,
      "EPHEMERIS_TYPE": 0,
      "CLASSIFICATION_TYPE": "U",
      "NORAD_CAT_ID": 54658,
      "ELEMENT_SET_NO": 999,
      "REV_AT_EPOCH": 16057,
      "BSTAR": 0.000010322865,
      "MEAN_MOTION_DOT": 1.7e-7,
      "MEAN_MOTION_DDOT": 0
    },
    {
      "OBJECT_NAME": "ONEWEB-0593",
      "OBJECT_ID": "2022-166T",
      "EPOCH": "2026-03-26T21:38:43.330560",
      "MEAN_MOTION": 13.21824634,
      "ECCENTRICITY": 0.00016882,
      "INCLINATION": 87.9172,
      "RA_OF_ASC_NODE": 260.3762,
      "ARG_OF_PERICENTER": 101.0457,
      "MEAN_ANOMALY": 259.0867,
      "EPHEMERIS_TYPE": 0,
      "CLASSIFICATION_TYPE": "U",
      "NORAD_CAT_ID": 54659,
      "ELEMENT_SET_NO": 999,
      "REV_AT_EPOCH": 16067,
      "BSTAR": 0.000089892028,
      "MEAN_MOTION_DOT": 5e-7,
      "MEAN_MOTION_DDOT": 0
    },
    {
      "OBJECT_NAME": "ONEWEB-0594",
      "OBJECT_ID": "2022-166U",
      "EPOCH": "2026-03-26T22:07:10.892640",
      "MEAN_MOTION": 13.21825164,
      "ECCENTRICITY": 0.00018241,
      "INCLINATION": 87.9169,
      "RA_OF_ASC_NODE": 260.3899,
      "ARG_OF_PERICENTER": 94.4091,
      "MEAN_ANOMALY": 265.7252,
      "EPHEMERIS_TYPE": 0,
      "CLASSIFICATION_TYPE": "U",
      "NORAD_CAT_ID": 54660,
      "ELEMENT_SET_NO": 999,
      "REV_AT_EPOCH": 16069,
      "BSTAR": 0.000057110929,
      "MEAN_MOTION_DOT": 3.7e-7,
      "MEAN_MOTION_DDOT": 0
    },
    {
      "OBJECT_NAME": "ONEWEB-0595",
      "OBJECT_ID": "2022-166V",
      "EPOCH": "2026-03-26T23:23:00.992256",
      "MEAN_MOTION": 13.21825308,
      "ECCENTRICITY": 0.00018167,
      "INCLINATION": 87.9177,
      "RA_OF_ASC_NODE": 260.3532,
      "ARG_OF_PERICENTER": 89.4596,
      "MEAN_ANOMALY": 270.6746,
      "EPHEMERIS_TYPE": 0,
      "CLASSIFICATION_TYPE": "U",
      "NORAD_CAT_ID": 54661,
      "ELEMENT_SET_NO": 999,
      "REV_AT_EPOCH": 16067,
      "BSTAR": 0.00017676285,
      "MEAN_MOTION_DOT": 8.6e-7,
      "MEAN_MOTION_DDOT": 0
    },
    {
      "OBJECT_NAME": "ONEWEB-0596",
      "OBJECT_ID": "2022-166W",
      "EPOCH": "2026-03-26T22:45:04.873248",
      "MEAN_MOTION": 13.21836249,
      "ECCENTRICITY": 0.00018315,
      "INCLINATION": 87.9164,
      "RA_OF_ASC_NODE": 260.3751,
      "ARG_OF_PERICENTER": 92.6321,
      "MEAN_ANOMALY": 267.5023,
      "EPHEMERIS_TYPE": 0,
      "CLASSIFICATION_TYPE": "U",
      "NORAD_CAT_ID": 54662,
      "ELEMENT_SET_NO": 999,
      "REV_AT_EPOCH": 16067,
      "BSTAR": 0.0034101298,
      "MEAN_MOTION_DOT": 0.00001422,
      "MEAN_MOTION_DDOT": 0
    },
    {
      "OBJECT_NAME": "ONEWEB-0597",
      "OBJECT_ID": "2022-166X",
      "EPOCH": "2026-03-26T22:19:00.708384",
      "MEAN_MOTION": 13.21823846,
      "ECCENTRICITY": 0.00016016,
      "INCLINATION": 87.9166,
      "RA_OF_ASC_NODE": 260.3833,
      "ARG_OF_PERICENTER": 98.9719,
      "MEAN_ANOMALY": 261.1596,
      "EPHEMERIS_TYPE": 0,
      "CLASSIFICATION_TYPE": "U",
      "NORAD_CAT_ID": 54663,
      "ELEMENT_SET_NO": 999,
      "REV_AT_EPOCH": 16067,
      "BSTAR": -0.00010780135,
      "MEAN_MOTION_DOT": -3.1e-7,
      "MEAN_MOTION_DDOT": 0
    }
  ]
