ONEWEB-0584             
1 54651U 22166K   26085.95619975  .00000036  00000+0  55313-4 0  9999
2 54651  87.9167 260.3742 0001371 100.5405 259.5883 13.21827770160658
ONEWEB-0585             
1 54652U 22166L   26085.90520164 -.00000010  00000+0 -55269-4 0  9990
2 54652  87.9170 260.3693 0001788  91.6292 268.5047 13.21825399160651
ONEWEB-0586             
1 54653U 22166M   26085.91837249  .00000062  00000+0  11832-3 0  9999
2 54653  87.9169 260.3925 0001666 102.0388 258.0933 13.21826110160656
ONEWEB-0587             
1 54654U 22166N   26085.92823644  .00000006  00000+0 -17149-4 0  9992
2 54654  87.9179 260.3559 0002004  88.9780 271.1584 13.21825469160818
ONEWEB-0589             
1 54655U 22166P   26085.91507240  .00000004  00000+0 -22591-4 0  9998
2 54655  87.9167 260.3816 0001033 118.8348 241.2889 13.21825155160678
ONEWEB-0590             
1 54656U 22166Q   26085.93961830 -.00000024  00000+0 -88655-4 0  9996
2 54656  87.9176 260.3584 0001472  81.0849 279.0451 13.21826151160665
ONEWEB-0591             
1 54657U 22166R   26085.95128265 -.00000045  00000+0 -14038-3 0  9992
2 54657  87.9171 260.3764 0001642  93.8359 266.2963 13.21825554160692
ONEWEB-0592             
1 54658U 22166S   26085.95457033  .00000017  00000+0  10323-4 0  9992
2 54658  87.9177 260.3476 0001676  95.1320 265.0005 13.21825819160574
ONEWEB-0593             
1 54659U 22166T   26085.90189040  .00000050  00000+0  89892-4 0  9992
2 54659  87.9172 260.3762 0001688 101.0457 259.0867 13.21824634160673
ONEWEB-0594             
1 54660U 22166U   26085.92165385  .00000037  00000+0  57111-4 0  9996
2 54660  87.9169 260.3899 0001824  94.4091 265.7252 13.21825164160696
ONEWEB-0595             
1 54661U 22166V   26085.97431704  .00000086  00000+0  17676-3 0  9998
2 54661  87.9177 260.3532 0001816  89.4596 270.6746 13.21825308160676
ONEWEB-0596             
1 54662U 22166W   26085.94797307  .00001422  00000+0  34101-2 0  9996
2 54662  87.9164 260.3751 0001831  92.6321 267.5023 13.21836249160674
ONEWEB-0597             
1 54663U 22166X   26085.92986931 -.00000031  00000+0 -10780-3 0  9993
2 54663  87.9166 260.3833 0001601  98.9719 261.1596 13.21823846160677
